GLOBALSTAR M068 [-]     
1 32266U 07048D   23231.90346291 -.00000076  00000+0  15623-3 0  9996
2 32266  51.9872 176.2509 0000968  85.8270 309.8811 12.62764503733544
GLOBALSTAR M079 [+]     
1 37188U 10054A   23231.91337069 -.00000095  00000+0  49807-4 0  9992
2 37188  52.0061  11.0757 0000604  96.3709  55.6289 12.62266915592863
GLOBALSTAR M074 [+]     
1 37189U 10054B   23232.38799263 -.00000102  00000+0  12410-4 0  9992
2 37189  52.0035   9.0568 0000825  93.6145 296.1070 12.62268888592929
GLOBALSTAR M076 [+]     
1 37190U 10054C   23231.96698667 -.00000100  00000+0  21946-4 0  9995
2 37190  52.0047  10.4465 0000665  44.4269 112.8861 12.62260497592873
GLOBALSTAR M077 [+]     
1 37191U 10054D   23231.46203297 -.00000074  00000+0  16407-3 0  9997
2 37191  52.0090 328.6520 0000675 102.7284 337.1712 12.62270061593566
GLOBALSTAR M075 [+]     
1 37192U 10054E   23231.98221854 -.00000096  00000+0  41971-4 0  9993
2 37192  51.9953  53.0287 0000601  79.7025  86.0747 12.62260429592112
GLOBALSTAR M073 [+]     
1 37193U 10054F   23231.74403458 -.00000079  00000+0  13808-3 0  9998
2 37193  52.0079 327.0676 0000630 108.6651  53.6550 12.62266478593594
GLOBALSTAR M083 [+]     
1 37739U 11033A   23232.45750453 -.00000096  00000+0  43367-4 0  9994
2 37739  51.9843 274.5380 0000541 144.6414 322.2309 12.62268780563012
GLOBALSTAR M088 [+]     
1 37740U 11033B   23231.33535204 -.00000103  00000+0  29888-5 0  9999
2 37740  51.9717 184.0058 0000004 252.3759 272.5866 12.62264819558348
GLOBALSTAR M091 [+]     
1 37741U 11033C   23232.13509788 -.00000078  00000+0  14621-3 0  9995
2 37741  51.9992 143.9326 0000186  55.6452  84.6938 12.62265609559207
GLOBALSTAR M085 [+]     
1 37742U 11033D   23231.09760823 -.00000079  00000+0  13858-3 0  9991
2 37742  51.9864  98.7204 0000533  79.5464  84.8009 12.62266495559814
GLOBALSTAR M081 [+]     
1 37743U 11033E   23232.14896233 -.00000074  00000+0  16691-3 0  9997
2 37743  51.9955  97.8950 0000437  49.3164  94.2556 12.62270344559987
GLOBALSTAR M089 [+]     
1 37744U 11033F   23232.24699493 -.00000105  00000+0 -95699-5 0  9991
2 37744  51.9936  51.9487 0000876  65.3359 343.8524 12.62266268560715
GLOBALSTAR M084 [+]     
1 38040U 11080A   23232.09522411 -.00000089  00000+0  82750-4 0  9994
2 38040  52.0000 279.3496 0000433  83.3652 295.3189 12.62264904538707
GLOBALSTAR M080 [+]     
1 38041U 11080B   23232.31958594 -.00000088  00000+0  87257-4 0  9991
2 38041  52.0054 280.0380 0000336  55.8534  23.4675 12.62263638538717
GLOBALSTAR M082 [+]     
1 38042U 11080C   23232.50407270 -.00000107  00000+0 -17206-4 0  9993
2 38042  52.0049 234.8507 0000719 156.3886 341.3162 12.62270177539475
GLOBALSTAR M092 [+]     
1 38043U 11080D   23232.21323396 -.00000084  00000+0  10849-3 0  9996
2 38043  52.0099 326.0775 0000846  87.3500 288.2215 12.62271590537936
GLOBALSTAR M090 [+]     
1 38044U 11080E   23232.03865966 -.00000113  00000+0 -52776-4 0  9991
2 38044  51.9857 230.9356 0000248 158.5722 263.2770 12.62267020539404
GLOBALSTAR M086 [+]     
1 38045U 11080F   23232.31137553 -.00000107  00000+0 -17826-4 0  9997
2 38045  51.9870 230.6032 0000875 285.0487 177.3589 12.62269553539448
GLOBALSTAR M097 [+]     
1 39072U 13005A   23232.15724681 -.00000078  00000+0  14183-3 0  9991
2 39072  52.0040 144.9429 0000193  73.2138 286.8750 12.62270181486659
GLOBALSTAR M093 [+]     
1 39073U 13005B   23231.73467107 -.00000080  00000+0  13293-3 0  9996
2 39073  51.9804 140.5998 0000013 287.5483  72.5382 12.62265981486599
GLOBALSTAR M094 [+]     
1 39074U 13005C   23232.05146418 -.00000102  00000+0  11495-4 0  9990
2 39074  51.9964  53.3493 0000630  83.2445 276.8493 12.62267060488147
GLOBALSTAR M096 [+]     
1 39075U 13005D   23231.11430665 -.00000076  00000+0  15446-3 0  9996
2 39075  52.0067 104.1952 0000379  73.6507 286.4401 12.62268040487279
GLOBALSTAR M078 [+]     
1 39076U 13005E   23232.19626344 -.00000098  00000+0  31577-4 0  9995
2 39076  51.9855 186.3161 0001068 127.2435 232.8529 12.62269542485899
GLOBALSTAR M095 [+]     
1 39077U 13005F   23231.27295360 -.00000107  00000+0 -17074-4 0  9992
2 39077  51.9781 186.6598 0000532 154.8725 205.2167 12.62267992485785
GLOBALSTAR M087 [+]     
1 52888U 22064A   23231.17973270 -.00000112  00000+0  31781-4 0  9990
2 52888  51.9742 184.9331 0009350 317.9288  42.0894 13.37550786 56974
